{
  "type": "FeatureCollection",
  "features": [
    {
      "type": "Feature",
      "properties": {
        "norad_id": 29857,
        "name": "FENGYUN 1C DEB",
        "group": "fengyun-1c-debris",
        "lat": 68.68935281013646,
        "lon": -34.99049442899878,
        "alt_km": 1009.0663566457597,
        "timestamp": "2025-12-05T04:52:15.564639+00:00",
        "meta_object_name": "FENGYUN 1C DEB",
        "meta_object_id": "1999-025FB",
        "meta_epoch": "2025-12-03T00:24:03.975552",
        "meta_mean_motion": 13.81815746,
        "meta_eccentricity": 0.01930395,
        "meta_inclination": 98.423,
        "meta_ra_of_asc_node": 345.3779,
        "meta_arg_of_pericenter": 321.0116,
        "meta_mean_anomaly": 37.7254,
        "meta_ephemeris_type": 0,
        "meta_classification_type": "U",
        "meta_norad_cat_id": 29857,
        "meta_element_set_no": 999,
        "meta_rev_at_epoch": 94641,
        "meta_bstar": 0.0022431403,
        "meta_mean_motion_dot": 2.73e-05,
        "meta_mean_motion_ddot": 0,
        "tle_line1": "1 29857U 99025FB  25337.01671268  .00002730  00000+0  22431-2 0  9992",
        "tle_line2": "2 29857  98.4230 345.3779 0193039 321.0116  37.7254 13.81815746946412"
      },
      "geometry": {
        "type": "Point",
        "coordinates": [
          -34.99049442899878,
          68.68935281013646
        ]
      }
    },
    {
      "type": "Feature",
      "properties": {
        "norad_id": 29858,
        "name": "FENGYUN 1C DEB",
        "group": "fengyun-1c-debris",
        "lat": 76.64158408061753,
        "lon": 37.934907411656226,
        "alt_km": 818.4127011728215,
        "timestamp": "2025-12-05T04:52:15.564648+00:00",
        "meta_object_name": "FENGYUN 1C DEB",
        "meta_object_id": "1999-025FC",
        "meta_epoch": "2025-12-04T06:05:46.150368",
        "meta_mean_motion": 13.77756551,
        "meta_eccentricity": 0.0199301,
        "meta_inclination": 99.2134,
        "meta_ra_of_asc_node": 80.1302,
        "meta_arg_of_pericenter": 86.8848,
        "meta_mean_anomaly": 329.3591,
        "meta_ephemeris_type": 0,
        "meta_classification_type": "U",
        "meta_norad_cat_id": 29858,
        "meta_element_set_no": 999,
        "meta_rev_at_epoch": 94437,
        "meta_bstar": 0.0019566,
        "meta_mean_motion_dot": 2.225e-05,
        "meta_mean_motion_ddot": 0,
        "tle_line1": "1 29858U 99025FC  25338.25400637  .00002225  00000+0  19566-2 0  9994",
        "tle_line2": "2 29858  99.2134  80.1302 0199301  86.8848 329.3591 13.77756551944377"
      },
      "geometry": {
        "type": "Point",
        "coordinates": [
          37.934907411656226,
          76.64158408061753
        ]
      }
    },
    {
      "type": "Feature",
      "properties": {
        "norad_id": 29859,
        "name": "FENGYUN 1C DEB",
        "group": "fengyun-1c-debris",
        "lat": 79.04672683097525,
        "lon": 44.10563695762889,
        "alt_km": 1132.0389264675296,
        "timestamp": "2025-12-05T04:52:15.564657+00:00",
        "meta_object_name": "FENGYUN 1C DEB",
        "meta_object_id": "1999-025FD",
        "meta_epoch": "2025-12-04T12:38:42.946944",
        "meta_mean_motion": 13.73952234,
        "meta_eccentricity": 0.0295578,
        "meta_inclination": 98.3349,
        "meta_ra_of_asc_node": 174.2734,
        "meta_arg_of_pericenter": 235.1591,
        "meta_mean_anomaly": 122.1437,
        "meta_ephemeris_type": 0,
        "meta_classification_type": "U",
        "meta_norad_cat_id": 29859,
        "meta_element_set_no": 999,
        "meta_rev_at_epoch": 93867,
        "meta_bstar": 0.0052744,
        "meta_mean_motion_dot": 6.751e-05,
        "meta_mean_motion_ddot": 0,
        "tle_line1": "1 29859U 99025FD  25338.52688596  .00006751  00000+0  52744-2 0  9990",
        "tle_line2": "2 29859  98.3349 174.2734 0295578 235.1591 122.1437 13.73952234938673"
      },
      "geometry": {
        "type": "Point",
        "coordinates": [
          44.10563695762889,
          79.04672683097525
        ]
      }
    },
    {
      "type": "Feature",
      "properties": {
        "norad_id": 29860,
        "name": "FENGYUN 1C DEB",
        "group": "fengyun-1c-debris",
        "lat": 32.19559682735198,
        "lon": -160.7130979904477,
        "alt_km": 1100.3288639798957,
        "timestamp": "2025-12-05T04:52:15.564666+00:00",
        "meta_object_name": "FENGYUN 1C DEB",
        "meta_object_id": "1999-025FE",
        "meta_epoch": "2025-12-04T16:32:11.903424",
        "meta_mean_motion": 13.77466623,
        "meta_eccentricity": 0.0221071,
        "meta_inclination": 98.6175,
        "meta_ra_of_asc_node": 13.3415,
        "meta_arg_of_pericenter": 5.1401,
        "meta_mean_anomaly": 113.4904,
        "meta_ephemeris_type": 0,
        "meta_classification_type": "U",
        "meta_norad_cat_id": 29860,
        "meta_element_set_no": 999,
        "meta_rev_at_epoch": 94028,
        "meta_bstar": 0.0042249,
        "meta_mean_motion_dot": 4.999e-05,
        "meta_mean_motion_ddot": 0,
        "tle_line1": "1 29860U 99025FE  25338.68902666  .00004999  00000+0  42249-2 0  9997",
        "tle_line2": "2 29860  98.6175  13.3415 0221071   5.1401 113.4904 13.77466623940284"
      },
      "geometry": {
        "type": "Point",
        "coordinates": [
          -160.7130979904477,
          32.19559682735198
        ]
      }
    },
    {
      "type": "Feature",
      "properties": {
        "norad_id": 29865,
        "name": "FENGYUN 1C DEB",
        "group": "fengyun-1c-debris",
        "lat": -79.42804118469341,
        "lon": -53.604314440302566,
        "alt_km": 656.4885480614694,
        "timestamp": "2025-12-05T04:52:15.564676+00:00",
        "meta_object_name": "FENGYUN 1C DEB",
        "meta_object_id": "1999-025FK",
        "meta_epoch": "2025-12-04T16:33:53.254944",
        "meta_mean_motion": 14.82455151,
        "meta_eccentricity": 0.0115978,
        "meta_inclination": 98.9203,
        "meta_ra_of_asc_node": 248.5206,
        "meta_arg_of_pericenter": 166.8001,
        "meta_mean_anomaly": 252.7551,
        "meta_ephemeris_type": 0,
        "meta_classification_type": "U",
        "meta_norad_cat_id": 29865,
        "meta_element_set_no": 999,
        "meta_rev_at_epoch": 639,
        "meta_bstar": 0.0015066,
        "meta_mean_motion_dot": 0.00013544,
        "meta_mean_motion_ddot": 0,
        "tle_line1": "1 29865U 99025FK  25338.69019971  .00013544  00000+0  15066-2 0  9994",
        "tle_line2": "2 29865  98.9203 248.5206 0115978 166.8001 252.7551 14.82455151  6394"
      },
      "geometry": {
        "type": "Point",
        "coordinates": [
          -53.604314440302566,
          -79.42804118469341
        ]
      }
    },
    {
      "type": "Feature",
      "properties": {
        "norad_id": 29866,
        "name": "FENGYUN 1C DEB",
        "group": "fengyun-1c-debris",
        "lat": 0.22200828398734934,
        "lon": 145.14186112615926,
        "alt_km": 610.5541792679242,
        "timestamp": "2025-12-05T04:52:15.564685+00:00",
        "meta_object_name": "FENGYUN 1C DEB",
        "meta_object_id": "1999-025FL",
        "meta_epoch": "2025-12-03T22:46:03.065376",
        "meta_mean_motion": 14.64157542,
        "meta_eccentricity": 0.01940945,
        "meta_inclination": 98.036,
        "meta_ra_of_asc_node": 323.8858,
        "meta_arg_of_pericenter": 242.7769,
        "meta_mean_anomaly": 171.2715,
        "meta_ephemeris_type": 0,
        "meta_classification_type": "U",
        "meta_norad_cat_id": 29866,
        "meta_element_set_no": 999,
        "meta_rev_at_epoch": 198,
        "meta_bstar": 0.00064807805,
        "meta_mean_motion_dot": 4.432e-05,
        "meta_mean_motion_ddot": 0,
        "tle_line1": "1 29866U 99025FL  25337.94864659  .00004432  00000+0  64808-3 0  9998",
        "tle_line2": "2 29866  98.0360 323.8858 0194094 242.7769 171.2715 14.64157542  1981"
      },
      "geometry": {
        "type": "Point",
        "coordinates": [
          145.14186112615926,
          0.22200828398734934
        ]
      }
    },
    {
      "type": "Feature",
      "properties": {
        "norad_id": 29868,
        "name": "FENGYUN 1C DEB",
        "group": "fengyun-1c-debris",
        "lat": -3.5953007269989565,
        "lon": 25.5373832998432,
        "alt_km": 519.6715584263211,
        "timestamp": "2025-12-05T04:52:15.564694+00:00",
        "meta_object_name": "FENGYUN 1C DEB",
        "meta_object_id": "1999-025FN",
        "meta_epoch": "2025-12-04T16:27:38.837952",
        "meta_mean_motion": 14.7826895,
        "meta_eccentricity": 0.0197795,
        "meta_inclination": 97.9513,
        "meta_ra_of_asc_node": 24.5233,
        "meta_arg_of_pericenter": 30.0422,
        "meta_mean_anomaly": 97.4485,
        "meta_ephemeris_type": 0,
        "meta_classification_type": "U",
        "meta_norad_cat_id": 29868,
        "meta_element_set_no": 999,
        "meta_rev_at_epoch": 176,
        "meta_bstar": 0.0014016,
        "meta_mean_motion_dot": 0.00014105,
        "meta_mean_motion_ddot": 0,
        "tle_line1": "1 29868U 99025FN  25338.68586618  .00014105  00000+0  14016-2 0  9991",
        "tle_line2": "2 29868  97.9513  24.5233 0197795  30.0422  97.4485 14.78268950  1768"
      },
      "geometry": {
        "type": "Point",
        "coordinates": [
          25.5373832998432,
          -3.5953007269989565
        ]
      }
    }
  ]
}